ONEWEB-0141             
1 47287U 20100AF  23059.52051237  .00001192  00000+0  32770-2 0  9998
2 47287  87.8937 229.9439 0001902  92.9922 267.1424 13.12443121106662
ONEWEB-0141             
1 47287U 20100AF  23059.90169741  .00001155  00000+0  31761-2 0  9998
2 47287  87.8940 229.8682 0001913  92.5171 267.6177 13.12443639106719
ONEWEB-0141             
1 47287U 20100AF  23060.74030340  .00000763  00000+0  20852-2 0  9997
2 47287  87.8940 229.7016 0001902  91.4557 268.6790 13.12445590106825
ONEWEB-0141             
1 47287U 20100AF  23060.89277707  .00000635  00000+0  17307-2 0  9992
2 47287  87.8939 229.6712 0001870  91.2790 268.8553 13.12445912106845
ONEWEB-0141             
1 47287U 20100AF  23061.73138030 -.00000272  00000+0 -79138-3 0  9991
2 47287  87.8944 229.5049 0001886  90.9579 269.1765 13.12449455106958
ONEWEB-0141             
1 47287U 20100AF  23061.96009039 -.00000314  00000+0 -90779-3 0  9993
2 47287  87.8944 229.4595 0001885  91.1890 268.9454 13.12449421106989
ONEWEB-0141             
1 47287U 20100AF  23062.41751020 -.00000263  00000+0 -76655-3 0  9998
2 47287  87.8946 229.3686 0001875  90.9036 269.2308 13.12449557107049
ONEWEB-0141             
1 47287U 20100AF  23062.87493093 -.00000384  00000+0 -11022-2 0  9991
2 47287  87.8946 229.2778 0001857  90.9405 269.1936 13.12449215107104
